IRIDIUM 112             
1 41925U 17003J   23321.70039765  .00000356  00000+0  12016-3 0  9996
2 41925  86.3940 122.2232 0002011  88.1375 272.0051 14.34214650358185
IRIDIUM 111             
1 41926U 17003K   23321.47840300  .00000093  00000+0  26307-4 0  9993
2 41926  86.3942 122.3663 0001929  97.5881 262.5534 14.34219030358132
IRIDIUM 113             
1 42803U 17039A   23321.80721743  .00000307  00000+0  10248-3 0  9997
2 42803  86.3989 355.9801 0001982  94.3464 265.7959 14.34218813336115
IRIDIUM 123             
1 42804U 17039B   23321.43007702  .00000323  00000+0  10810-3 0  9992
2 42804  86.4006  27.6238 0001938  94.9453 265.1964 14.34219994334826
IRIDIUM 120             
1 42805U 17039C   23321.80087098  .00000300  00000+0  10006-3 0  9992
2 42805  86.3978 355.8875 0002120  93.8601 266.2838 14.34218603336105
IRIDIUM 115             
1 42806U 17039D   23321.84315167  .00000118  00000+0  29052-4 0  9997
2 42806  86.4513 355.8627 0001868 101.3803 258.7608 14.43281233338342
IRIDIUM 118             
1 42807U 17039E   23321.46179175  .00000330  00000+0  11063-3 0  9991
2 42807  86.4006  27.6128 0002117  94.5847 265.5590 14.34220026334827
IRIDIUM 117             
1 42808U 17039F   23321.89943965  .00000298  00000+0  99432-4 0  9995
2 42808  86.4005  27.3962 0002119  98.4947 261.6489 14.34217582334913
